{
    "links": {
        "self": "http://www.neowsapp.com/rest/v1/neo/54087748?api_key=iIulBulltgU6a56xZRHN4H3l9WmuAYTsLGpBGhQ2"
    },
    "id": "54087748",
    "neo_reference_id": "54087748",
    "name": "(2020 VF3)",
    "designation": "2020 VF3",
    "nasa_jpl_url": "http://ssd.jpl.nasa.gov/sbdb.cgi?sstr=54087748",
    "absolute_magnitude_h": 19.903,
    "estimated_diameter": {
        "kilometers": {
            "estimated_diameter_min": 0.2779425109,
            "estimated_diameter_max": 0.6214983483
        },
        "meters": {
            "estimated_diameter_min": 277.9425109282,
            "estimated_diameter_max": 621.4983482724
        },
        "miles": {
            "estimated_diameter_min": 0.172705416,
            "estimated_diameter_max": 0.3861810502
        },
        "feet": {
            "estimated_diameter_min": 911.8849075537,
            "estimated_diameter_max": 2039.0366409461
        }
    },
    "is_potentially_hazardous_asteroid": false,
    "close_approach_data": [
        {
            "close_approach_date": "2020-11-30",
            "close_approach_date_full": "2020-Nov-30 08:47",
            "epoch_date_close_approach": 1606726020000,
            "relative_velocity": {
                "kilometers_per_second": "28.8915101319",
                "kilometers_per_hour": "104009.4364749718",
                "miles_per_hour": "64627.419014129"
            },
            "miss_distance": {
                "astronomical": "0.2399456991",
                "lunar": "93.3388769499",
                "kilometers": "35895365.501020917",
                "miles": "22304345.8560739746"
            },
            "orbiting_body": "Earth"
        }
    ],
    "orbital_data": {
        "orbit_id": "8",
        "orbit_determination_date": "2020-11-26 05:21:10",
        "first_observation_date": "2020-11-04",
        "last_observation_date": "2020-11-25",
        "data_arc_in_days": 21,
        "observations_used": 58,
        "orbit_uncertainty": "8",
        "minimum_orbit_intersection": ".169057",
        "jupiter_tisserand_invariant": "3.055",
        "epoch_osculation": "2459170.5",
        "eccentricity": ".7496468917899781",
        "semi_major_axis": "2.329663084672537",
        "inclination": "21.97804793482821",
        "ascending_node_longitude": "282.1363723249592",
        "orbital_period": "1298.787511079441",
        "perihelion_distance": ".5832383943299171",
        "perihelion_argument": "235.219352226187",
        "aphelion_distance": "4.076087775015158",
        "perihelion_time": "2459221.846813167918",
        "mean_anomaly": "345.7676081862787",
        "mean_motion": ".2771815997066362",
        "equinox": "J2000",
        "orbit_class": {
            "orbit_class_type": "APO",
            "orbit_class_description": "Near-Earth asteroid orbits which cross the Earth’s orbit similar to that of 1862 Apollo",
            "orbit_class_range": "a (semi-major axis) > 1.0 AU; q (perihelion) < 1.017 AU"
        }
    },
    "is_sentry_object": false
}